{"type": "FeatureCollection", "features": [ {"type": "Feature", "properties": {"norad_id": 34833, "name": "IRIDIUM 33 DEB", "group": "iridium-33-debris", "lat": -47.745474744663696, "lon": -121.89788355965878, "alt_km": 729.535211647798, "timestamp": "2025-12-05T11:32:56.402674+00:00", "meta": {"OBJECT_NAME": "IRIDIUM 33 DEB", "OBJECT_ID": "1997-051MH", "EPOCH": "2025-12-04T11:26:09.511872", "MEAN_MOTION": 14.52297117, "ECCENTRICITY": 0.00216, "INCLINATION": 86.3942, "RA_OF_ASC_NODE": 54.5547, "ARG_OF_PERICENTER": 123.9185, "MEAN_ANOMALY": 254.0843, "EPHEMERIS_TYPE": 0, "CLASSIFICATION_TYPE": "U", "NORAD_CAT_ID": 34833, "ELEMENT_SET_NO": 999, "REV_AT_EPOCH": 87595, "BSTAR": 0.0019345, "MEAN_MOTION_DOT": 7.908e-05, "MEAN_MOTION_DDOT": 0}, "tle": {"line1": "1 34833U 97051MH  25338.47649898  .00007908  00000+0  19345-2 0  9996", "line2": "2 34833  86.3942  54.5547 0021600 123.9185 254.0843 14.52297117875952"}}, "geometry": {"type": "Point", "coordinates": [-121.89788355965878, -47.745474744663696]}}, {"type": "Feature", "properties": {"norad_id": 34870, "name": "IRIDIUM 33 DEB", "group": "iridium-33-debris", "lat": -65.63838867011894, "lon": -50.78465733096961, "alt_km": 647.4683921294609, "timestamp": "2025-12-05T11:32:56.402684+00:00", "meta": {"OBJECT_NAME": "IRIDIUM 33 DEB", "OBJECT_ID": "1997-051MQ", "EPOCH": "2025-12-03T16:42:25.585344", "MEAN_MOTION": 14.7612151, "ECCENTRICITY": 0.00150063, "INCLINATION": 86.3102, "RA_OF_ASC_NODE": 318.2257, "ARG_OF_PERICENTER": 217.2591, "MEAN_ANOMALY": 316.7951, "EPHEMERIS_TYPE": 0, "CLASSIFICATION_TYPE": "U", "NORAD_CAT_ID": 34870, "ELEMENT_SET_NO": 999, "REV_AT_EPOCH": 88777, "BSTAR": 0.002200073, "MEAN_MOTION_DOT": 0.00015256, "MEAN_MOTION_DDOT": 0}, "tle": {"line1": "1 34870U 97051MQ  25337.69612946  .00015256  00000+0  22001-2 0  9992", "line2": "2 34870  86.3102 318.2257 0015006 217.2591 316.7951 14.76121510887778"}}, "geometry": {"type": "Point", "coordinates": [-50.78465733096961, -65.63838867011894]}}, {"type": "Feature", "properties": {"norad_id": 34896, "name": "IRIDIUM 33 DEB", "group": "iridium-33-debris", "lat": 38.57713707135657, "lon": -27.123036654427377, "alt_km": 685.9828144272706, "timestamp": "2025-12-05T11:32:56.402694+00:00", "meta": {"OBJECT_NAME": "IRIDIUM 33 DEB", "OBJECT_ID": "1997-051MY", "EPOCH": "2025-12-04T05:57:48.984768", "MEAN_MOTION": 14.66139548, "ECCENTRICITY": 0.0023794, "INCLINATION": 86.3283, "RA_OF_ASC_NODE": 330.4937, "ARG_OF_PERICENTER": 245.976, "MEAN_ANOMALY": 130.3952, "EPHEMERIS_TYPE": 0, "CLASSIFICATION_TYPE": "U", "NORAD_CAT_ID": 34896, "ELEMENT_SET_NO": 999, "REV_AT_EPOCH": 87495, "BSTAR": 0.0021831, "MEAN_MOTION_DOT": 0.00012077, "MEAN_MOTION_DDOT": 0}, "tle": {"line1": "1 34896U 97051MY  25338.24848362  .00012077  00000+0  21831-2 0  9993", "line2": "2 34896  86.3283 330.4937 0023794 245.9760 130.3952 14.66139548874952"}}, "geometry": {"type": "Point", "coordinates": [-27.123036654427377, 38.57713707135657]}}, {"type": "Feature", "properties": {"norad_id": 34926, "name": "IRIDIUM 33 DEB", "group": "iridium-33-debris", "lat": 79.90192347847002, "lon": 33.96384661351612, "alt_km": 734.9107275426295, "timestamp": "2025-12-05T11:32:56.402705+00:00", "meta": {"OBJECT_NAME": "IRIDIUM 33 DEB", "OBJECT_ID": "1997-051NF", "EPOCH": "2025-12-04T14:18:19.461312", "MEAN_MOTION": 14.53845414, "ECCENTRICITY": 0.0076693, "INCLINATION": 86.1322, "RA_OF_ASC_NODE": 12.0478, "ARG_OF_PERICENTER": 320.5394, "MEAN_ANOMALY": 169.4917, "EPHEMERIS_TYPE": 0, "CLASSIFICATION_TYPE": "U", "NORAD_CAT_ID": 34926, "ELEMENT_SET_NO": 999, "REV_AT_EPOCH": 86338, "BSTAR": 0.012333, "MEAN_MOTION_DOT": 0.00054245, "MEAN_MOTION_DDOT": 0}, "tle": {"line1": "1 34926U 97051NF  25338.59605858  .00054245  00000+0  12333-1 0  9995", "line2": "2 34926  86.1322  12.0478 0076693 320.5394 169.4917 14.53845414863381"}}, "geometry": {"type": "Point", "coordinates": [33.96384661351612, 79.90192347847002]}}, {"type": "Feature", "properties": {"norad_id": 34985, "name": "IRIDIUM 33 DEB", "group": "iridium-33-debris", "lat": 17.5756267284235, "lon": -121.1761253001838, "alt_km": 750.8395941096614, "timestamp": "2025-12-05T11:32:56.402715+00:00", "meta": {"OBJECT_NAME": "IRIDIUM 33 DEB", "OBJECT_ID": "1997-051NR", "EPOCH": "2025-12-03T17:45:54.671040", "MEAN_MOTION": 14.41942363, "ECCENTRICITY": 0.0019945, "INCLINATION": 86.3703, "RA_OF_ASC_NODE": 60.7182, "ARG_OF_PERICENTER": 251.1586, "MEAN_ANOMALY": 239.5788, "EPHEMERIS_TYPE": 0, "CLASSIFICATION_TYPE": "U", "NORAD_CAT_ID": 34985, "ELEMENT_SET_NO": 999, "REV_AT_EPOCH": 87045, "BSTAR": 0.0011135704, "MEAN_MOTION_DOT": 3.675e-05, "MEAN_MOTION_DDOT": 0}, "tle": {"line1": "1 34985U 97051NR  25337.74021610  .00003675  00000+0  11136-2 0  9996", "line2": "2 34985  86.3703  60.7182 0019945 251.1586 239.5788 14.41942363870451"}}, "geometry": {"type": "Point", "coordinates": [-121.1761253001838, 17.5756267284235]}}, {"type": "Feature", "properties": {"norad_id": 35051, "name": "IRIDIUM 33 DEB", "group": "iridium-33-debris", "lat": -50.546270055329366, "lon": 7.548793474286845, "alt_km": 747.6795668758432, "timestamp": "2025-12-05T11:32:56.402725+00:00", "meta": {"OBJECT_NAME": "IRIDIUM 33 DEB", "OBJECT_ID": "1997-051NX", "EPOCH": "2025-12-02T20:44:20.358528", "MEAN_MOTION": 14.47524123, "ECCENTRICITY": 0.00104766, "INCLINATION": 86.3255, "RA_OF_ASC_NODE": 13.167, "ARG_OF_PERICENTER": 117.6322, "MEAN_ANOMALY": 242.5946, "EPHEMERIS_TYPE": 0, "CLASSIFICATION_TYPE": "U", "NORAD_CAT_ID": 35051, "ELEMENT_SET_NO": 999, "REV_AT_EPOCH": 86853, "BSTAR": 0.00083073982, "MEAN_MOTION_DOT": 3.075e-05, "MEAN_MOTION_DDOT": 0}, "tle": {"line1": "1 35051U 97051NX  25336.86412452  .00003075  00000+0  83074-3 0  9996", "line2": "2 35051  86.3255  13.1670 0010476 117.6322 242.5946 14.47524123868538"}}, "geometry": {"type": "Point", "coordinates": [7.548793474286845, -50.546270055329366]}}, {"type": "Feature", "properties": {"norad_id": 35052, "name": "IRIDIUM 33 DEB", "group": "iridium-33-debris", "lat": -24.464344180985346, "lon": 21.915770498089913, "alt_km": 775.1948834023569, "timestamp": "2025-12-05T11:32:56.402736+00:00", "meta": {"OBJECT_NAME": "IRIDIUM 33 DEB", "OBJECT_ID": "1997-051NY", "EPOCH": "2025-12-03T09:34:41.243808", "MEAN_MOTION": 14.38474519, "ECCENTRICITY": 0.00135564, "INCLINATION": 86.3319, "RA_OF_ASC_NODE": 24.4803, "ARG_OF_PERICENTER": 111.0544, "MEAN_ANOMALY": 249.2105, "EPHEMERIS_TYPE": 0, "CLASSIFICATION_TYPE": "U", "NORAD_CAT_ID": 35052, "ELEMENT_SET_NO": 999, "REV_AT_EPOCH": 87141, "BSTAR": 0.0002868316, "MEAN_MOTION_DOT": 8.96e-06, "MEAN_MOTION_DDOT": 0}, "tle": {"line1": "1 35052U 97051NY  25337.39908847  .00000896  00000+0  28683-3 0  9997", "line2": "2 35052  86.3319  24.4803 0013556 111.0544 249.2105 14.38474519871414"}}, "geometry": {"type": "Point", "coordinates": [21.915770498089913, -24.464344180985346]}}, {"type": "Feature", "properties": {"norad_id": 35080, "name": "IRIDIUM 33 DEB", "group": "iridium-33-debris", "lat": 7.257806408965185, "lon": 56.325715244617804, "alt_km": 659.9371694222218, "timestamp": "2025-12-05T11:32:56.402746+00:00", "meta": {"OBJECT_NAME": "IRIDIUM 33 DEB", "OBJECT_ID": "1997-051PF", "EPOCH": "2025-12-03T04:30:09.217152", "MEAN_MOTION": 14.84042089, "ECCENTRICITY": 0.00639322, "INCLINATION": 86.2067, "RA_OF_ASC_NODE": 56.9348, "ARG_OF_PERICENTER": 212.1182, "MEAN_ANOMALY": 147.6141, "EPHEMERIS_TYPE": 0, "CLASSIFICATION_TYPE": "U", "NORAD_CAT_ID": 35080, "ELEMENT_SET_NO": 999, "REV_AT_EPOCH": 69546, "BSTAR": 0.011299497, "MEAN_MOTION_DOT": 0.00098836, "MEAN_MOTION_DDOT": 0}, "tle": {"line1": "1 35080U 97051PF  25337.18760668  .00098836  00000+0  11299-1 0  9996", "line2": "2 35080  86.2067  56.9348 0063932 212.1182 147.6141 14.84042089695466"}}, "geometry": {"type": "Point", "coordinates": [56.325715244617804, 7.257806408965185]}}, {"type": "Feature", "properties": {"norad_id": 35297, "name": "IRIDIUM 33 DEB", "group": "iridium-33-debris", "lat": 68.59993727177294, "lon": 75.13786416721003, "alt_km": 735.8042462085305, "timestamp": "2025-12-05T11:32:56.402756+00:00", "meta": {"OBJECT_NAME": "IRIDIUM 33 DEB", "OBJECT_ID": "1997-051PM", "EPOCH": "2025-11-28T13:02:32.385696", "MEAN_MOTION": 14.4505178, "ECCENTRICITY": 0.00162447, "INCLINATION": 86.3859, "RA_OF_ASC_NODE": 68.817, "ARG_OF_PERICENTER": 185.2069, "MEAN_ANOMALY": 174.8967, "EPHEMERIS_TYPE": 0, "CLASSIFICATION_TYPE": "U", "NORAD_CAT_ID": 35297, "ELEMENT_SET_NO": 999, "REV_AT_EPOCH": 70221, "BSTAR": 0.00072341306, "MEAN_MOTION_DOT": 2.549e-05, "MEAN_MOTION_DDOT": 0}, "tle": {"line1": "1 35297U 97051PM  25332.54343039  .00002549  00000+0  72341-3 0  9993", "line2": "2 35297  86.3859  68.8170 0016244 185.2069 174.8967 14.45051780702214"}}, "geometry": {"type": "Point", "coordinates": [75.13786416721003, 68.59993727177294]}}, {"type": "Feature", "properties": {"norad_id": 35299, "name": "IRIDIUM 33 DEB", "group": "iridium-33-debris", "lat": 65.57763978029118, "lon": -151.8709660550686, "alt_km": 708.4642616768579, "timestamp": "2025-12-05T11:32:56.402767+00:00", "meta": {"OBJECT_NAME": "IRIDIUM 33 DEB", "OBJECT_ID": "1997-051PP", "EPOCH": "2025-12-04T11:59:39.257088", "MEAN_MOTION": 14.40798128, "ECCENTRICITY": 0.0058659, "INCLINATION": 86.2891, "RA_OF_ASC_NODE": 36.7731, "ARG_OF_PERICENTER": 128.6225, "MEAN_ANOMALY": 298.184, "EPHEMERIS_TYPE": 0, "CLASSIFICATION_TYPE": "U", "NORAD_CAT_ID": 35299, "ELEMENT_SET_NO": 999, "REV_AT_EPOCH": 86212, "BSTAR": 0.0017677, "MEAN_MOTION_DOT": 5.794e-05, "MEAN_MOTION_DDOT": 0}, "tle": {"line1": "1 35299U 97051PP  25338.49975992  .00005794  00000+0  17677-2 0  9999", "line2": "2 35299  86.2891  36.7731 0058659 128.6225 298.1840 14.40798128862125"}}, "geometry": {"type": "Point", "coordinates": [-151.8709660550686, 65.57763978029118]}}]}